OBJECT_NAME,OBJECT_ID,EPOCH,MEAN_MOTION,ECCENTRICITY,INCLINATION,RA_OF_ASC_NODE,ARG_OF_PERICENTER,MEAN_ANOMALY,EPHEMERIS_TYPE,CLASSIFICATION_TYPE,NORAD_CAT_ID,ELEMENT_SET_NO,REV_AT_EPOCH,BSTAR,MEAN_MOTION_DOT,MEAN_MOTION_DDOT
GSAT-16,2014-078A,2026-06-17T21:47:06.577728,1.00270297,.00075656,0.0918,89.4173,0.2720,198.3155,0,U,40332,999,4211,0,.79E-6,0
DIRECTV 14,2014-078B,2026-06-17T23:29:27.584736,1.00271608,.00004358,0.0098,23.1294,292.0243,204.1979,0,U,40333,999,4205,0,-.131E-5,0
YAMAL 401,2014-082A,2026-06-17T21:57:05.620896,1.00270806,.00001308,0.0153,0.7739,293.5170,31.1082,0,U,40345,999,4192,0,0,0
ASTRA 2G,2014-089A,2026-06-17T06:15:29.765952,1.00273746,.00045004,0.0457,356.8073,73.2664,317.5337,0,U,40364,999,4196,0,.146E-5,0
FENGYUN 2G,2014-090A,2026-06-17T18:34:29.635968,1.00271765,.00040128,5.6410,72.8081,158.0009,53.5218,0,U,40367,999,4200,0,-.31E-5,0
MUOS-3,2015-002A,2026-06-17T21:27:00.487296,1.00271461,.0051997,4.5219,43.5255,178.0128,350.9232,0,U,40374,999,4159,0,-.136E-5,0
INMARSAT 5-F2,2015-005A,2026-06-17T10:59:46.909248,1.00272028,.00006901,0.0183,359.5197,309.2992,66.8429,0,U,40384,999,4099,0,-.29E-5,0
ABS-3A,2015-010A,2026-06-16T22:04:38.846784,1.00277277,.0001832,0.0018,358.9464,29.3198,205.0834,0,U,40424,999,4137,0,-.28E-6,0
EUTELSAT 115 WEST B,2015-010B,2026-06-17T11:15:38.600928,1.00272513,.00004288,0.0113,150.4979,288.8960,240.3379,0,U,40425,999,4139,0,-.3E-6,0
EXPRESS-AM7,2015-012A,2026-06-17T21:42:44.497152,1.00270950,.00028903,0.0163,24.2690,68.3051,179.2364,0,U,40505,999,4101,0,.145E-5,0
BEIDOU-3S IGSO-1S,2015-019A,2026-06-16T20:07:21.731808,1.00249739,.00390475,49.1960,295.4654,191.2267,171.7060,0,U,40549,999,4107,0,-.175E-5,0
THOR 7,2015-022A,2026-06-17T21:31:15.079584,1.00272833,.00024014,0.0285,237.3037,208.1369,142.8725,0,U,40613,999,4082,0,-.14E-6,0
TURKMENALEM52E/MONACOSAT,2015-023A,2026-06-17T21:46:14.162304,1.00271261,.00026917,0.0391,77.2306,2.9939,204.4907,0,U,40617,999,4085,0,.98E-6,0
DIRECTV 15,2015-026A,2026-06-17T21:02:03.049152,1.00267772,.00004027,0.0114,46.9988,273.9598,157.7890,0,U,40663,999,4047,0,-.107E-5,0
SKY MEXICO-1,2015-026B,2026-06-17T21:08:54.891168,1.00270017,.00020766,0.0159,23.9234,83.8067,36.8187,0,U,40664,999,4046,0,-.24E-5,0
METEOSAT-11 (MSG-4),2015-034A,2026-06-17T06:10:15.269088,1.00280400,.00017414,3.2014,71.1096,11.8883,284.7520,0,U,40732,999,721,0,.6E-6,0
STAR ONE C4,2015-034B,2026-06-17T12:38:11.245920,1.00269460,.00020236,0.0215,351.6390,84.9791,308.7007,0,U,40733,999,4001,0,-.27E-5,0
WGS F7 (USA 263),2015-036A,2026-06-17T20:38:42.786816,1.00272438,.00002012,0.0024,355.3748,330.3636,65.0485,0,U,40746,999,3987,0,.12E-6,0
INTELSAT 34 (IS-34),2015-039A,2026-06-17T21:15:31.755744,1.00269570,.0000465,0.0101,358.2034,330.1165,201.2037,0,U,40874,999,3964,0,-.291E-5,0
EUTELSAT 8 WEST B,2015-039B,2026-06-17T21:29:07.783872,1.00271512,.00039268,0.0632,347.4221,96.5192,136.4895,0,U,40875,999,3966,0,-.71E-6,0
GSAT-6,2015-041A,2026-06-17T21:54:58.324320,1.00272012,.00032951,1.9210,82.5873,358.5400,236.3159,0,U,40880,999,3960,0,-.167E-5,0
INMARSAT 5-F3,2015-042A,2026-06-17T15:31:56.423712,1.00265327,.00001909,0.0172,12.6317,263.3909,42.4841,0,U,40882,999,3957,0,.44E-6,0
MUOS-4,2015-044A,2026-06-17T18:27:22.818240,1.00271147,.00578901,4.3314,42.2542,2.1990,213.3913,0,U,40887,999,3956,0,-.1E-5,0
TJS-1,2015-046A,2026-06-17T22:15:33.850368,1.00270799,.00055212,0.3262,84.8952,359.7403,310.4863,0,U,40892,999,3957,0,-.161E-5,0
EXPRESS-AM8,2015-048A,2026-06-17T02:13:34.006080,1.00271066,.00005689,0.0143,297.1564,10.6854,336.8957,0,U,40895,999,3934,0,-.115E-5,0
BEIDOU-3S IGSO-2S,2015-053A,2026-06-17T16:55:35.145696,1.00258762,.00655824,49.2207,258.7761,192.0839,164.1337,0,U,40938,999,3935,0,-.132E-5,0
SKY MUSTER 1 (NBN1A),2015-054A,2026-06-17T17:03:23.052672,1.00268158,.00016128,0.0234,353.3035,92.6240,216.1098,0,U,40940,999,3926,0,0,0
ARSAT 2,2015-054B,2026-06-17T21:08:17.450592,1.00270518,.00019798,0.0381,62.3668,7.7717,72.0565,0,U,40941,999,3931,0,-.23E-5,0
MORELOS 3,2015-056A,2026-06-17T11:15:38.600928,1.00273381,.00010482,3.1869,15.0767,6.6271,299.8511,0,U,40946,999,3928,0,-.5E-6,0
APSTAR-9,2015-059A,2026-06-17T22:11:56.696928,1.00271406,.00022876,0.0361,51.3665,135.9887,193.8170,0,U,40982,999,3912,0,-.271E-5,0
TURKSAT 4B,2015-060A,2026-06-17T21:45:36.721728,1.00273080,.00021088,0.0166,323.6020,108.0504,210.8877,0,U,40984,999,3910,0,.109E-5,0
ZHONGXING-2C,2015-063A,2026-06-17T22:00:57.750048,1.00270485,.00076661,0.2760,89.6718,99.3862,150.7998,0,U,41021,999,3898,0,-.329E-5,0
